IRIDIUM 36              
1 24967U 97056C   24187.85677516  .00000750  00000+0  24707-3 0  9996
2 24967  86.3977 318.4540 0002285  90.4019 269.7440 14.36875551402479
IRIDIUM 39              
1 25042U 97069D   24187.87423208  .00001017  00000+0  26775-3 0  9998
2 25042  86.3924 359.5511 0019196  28.5291 331.6959 14.48042472399080
IRIDIUM 38              
1 25043U 97069E   24188.06727812  .00000658  00000+0  21423-3 0  9994
2 25043  86.3958  18.7279 0003292 118.6728 241.4801 14.37322589396482
IRIDIUM 42              
1 25077U 97077A   24187.93340232  .00000610  00000+0  20488-3 0  9990
2 25077  86.3960  24.5266 0002285 104.4118 255.7333 14.35616393391503
IRIDIUM 44              
1 25078U 97077B   24187.98293934  .00000709  00000+0  22151-3 0  9990
2 25078  86.3960   7.3639 0003986  87.5929 272.5726 14.39461985393916
IRIDIUM 45              
1 25104U 97082A   24187.78519687  .00013979  00000+0  76531-3 0  9994
2 25104  86.3727 213.5167 0158831 170.6911 189.7332 15.03840009399658
IRIDIUM 24              
1 25105U 97082B   24188.18679882  .00000641  00000+0  19211-3 0  9998
2 25105  86.3911 226.8294 0013173 133.4912 226.7386 14.41248095393618
IRIDIUM 51              
1 25262U 98018A   24187.84633273  .00020471  00000+0  91376-3 0  9993
2 25262  86.3939 223.2506 0145550 113.9971 247.6584 15.12124126394230
